SL-14 R/B               
1 18749U 88001B   25332.63235426  .00000597  00000+0  66439-4 0  9994
2 18749  82.5119 290.4171 0017227 208.1428 151.8859 14.85399938 27022
COSMOS 1933             
1 18958U 88020A   25332.57132995  .00003689  00000+0  18553-3 0  9995
2 18958  82.5141 350.8776 0004431 169.3069 190.8259 15.16937746 34893
SL-3 R/B                
1 19046U 88032B   25332.76088310  .00005975  00000+0  29041-3 0  9993
2 19046  97.5072 311.5817 0025313 222.9201 137.0058 15.18527126 36786
SL-16 R/B               
1 19120U 88039B   25332.58375450 -.00000094  00000+0 -21801-4 0  9993
2 19120  71.0146 282.3291 0020259 139.9363 220.3261 14.19592928944039
COSMOS 1953             
1 19210U 88050A   25332.81031507  .00006710  00000+0  25374-3 0  9991
2 19210  82.5085 259.5547 0013646 113.7386 246.5286 15.26688490 22386
SL-8 R/B                
1 19257U 88053B   25332.65612031  .00000259  00000+0  92623-4 0  9998
2 19257  74.0471 298.6763 0019388 147.7144  24.7539 14.38845704962064
COSMOS 1975             
1 19573U 88093A   25332.42334568  .00009285  00000+0  35755-3 0  9994
2 19573  82.5212 219.1560 0011763 158.2577 201.9163 15.26154206  3955
SL-14 R/B               
1 19574U 88093B   25332.56395274  .00000565  00000+0  62372-4 0  9999
2 19574  82.5293 136.9704 0021146  16.9247  50.8516 14.85525398986020
SL-16 R/B               
1 19650U 88102B   25332.54319683  .00000087  00000+0  68312-4 0  9992
2 19650  71.0009   4.3153 0013721 174.7273 185.3998 14.16136819912578
INTERCOSMOS 24          
1 20261U 89080A   25332.84035142  .00000803  00000+0  23101-3 0  9998
2 20261  82.6047 169.9904 1188630 166.7555 196.7899 12.59401699654101
SL-14 R/B               
1 20262U 89080C   25332.50302474  .00000450  00000+0  12746-3 0  9998
2 20262  82.5941 238.1570 1230899  56.1181 315.0941 12.50395572647507
DELTA 1 R/B             
1 20323U 89089B   25332.84371654  .00000383  00000+0  10318-3 0  9996
2 20323  97.0763 191.2829 0070721  81.3928 279.5274 14.50554514881113
